{
  "type": "FeatureCollection",
  "features": [
    {
      "type": "Feature",
      "properties": {
        "norad_id": 43058,
        "name": "GSAT0218 (GALILEO 22)",
        "group": "gnss",
        "lat": 40.92347739984759,
        "lon": -95.96485079684669,
        "alt_km": 23220.10510549216,
        "timestamp": "2025-12-02T17:49:12.270536+00:00",
        "meta_object_name": "GSAT0218 (GALILEO 22)",
        "meta_object_id": "2017-079D",
        "meta_epoch": "2025-11-30T07:26:14.163360",
        "meta_mean_motion": 1.70473798,
        "meta_eccentricity": 0.0002943,
        "meta_inclination": 55.1332,
        "meta_ra_of_asc_node": 226.9759,
        "meta_arg_of_pericenter": 303.6931,
        "meta_mean_anomaly": 56.3534,
        "meta_ephemeris_type": 0,
        "meta_classification_type": "U",
        "meta_norad_cat_id": 43058,
        "meta_element_set_no": 999,
        "meta_rev_at_epoch": 4962,
        "meta_bstar": 0,
        "meta_mean_motion_dot": 2.9e-07,
        "meta_mean_motion_ddot": 0,
        "tle_line1": "1 43058U 17079D   25334.30988615  .00000029  00000+0  00000+0 0  9990",
        "tle_line2": "2 43058  55.1332 226.9759 0002943 303.6931  56.3534  1.70473798 49627"
      },
      "geometry": {
        "type": "Point",
        "coordinates": [
          -95.96485079684669,
          40.92347739984759
        ]
      }
    },
    {
      "type": "Feature",
      "properties": {
        "norad_id": 43107,
        "name": "BEIDOU-3 M7 (C27)",
        "group": "gnss",
        "lat": -42.38421587518914,
        "lon": -91.47695033504426,
        "alt_km": 21537.213600936986,
        "timestamp": "2025-12-02T17:49:12.270550+00:00",
        "meta_object_name": "BEIDOU-3 M7 (C27)",
        "meta_object_id": "2018-003A",
        "meta_epoch": "2025-12-02T06:56:05.635968",
        "meta_mean_motion": 1.86232265,
        "meta_eccentricity": 0.0002591,
        "meta_inclination": 54.5061,
        "meta_ra_of_asc_node": 309.1785,
        "meta_arg_of_pericenter": 70.8685,
        "meta_mean_anomaly": 289.1495,
        "meta_ephemeris_type": 0,
        "meta_classification_type": "U",
        "meta_norad_cat_id": 43107,
        "meta_element_set_no": 999,
        "meta_rev_at_epoch": 5368,
        "meta_bstar": 0,
        "meta_mean_motion_dot": -6.3e-07,
        "meta_mean_motion_ddot": 0,
        "tle_line1": "1 43107U 18003A   25336.28895412 -.00000063  00000+0  00000+0 0  9993",
        "tle_line2": "2 43107  54.5061 309.1785 0002591  70.8685 289.1495  1.86232265 53687"
      },
      "geometry": {
        "type": "Point",
        "coordinates": [
          -91.47695033504426,
          -42.38421587518914
        ]
      }
    },
    {
      "type": "Feature",
      "properties": {
        "norad_id": 43108,
        "name": "BEIDOU-3 M8 (C28)",
        "group": "gnss",
        "lat": -15.306895594118517,
        "lon": -62.13562493320496,
        "alt_km": 21525.083312503997,
        "timestamp": "2025-12-02T17:49:12.270562+00:00",
        "meta_object_name": "BEIDOU-3 M8 (C28)",
        "meta_object_id": "2018-003B",
        "meta_epoch": "2025-12-01T03:50:13.118784",
        "meta_mean_motion": 1.86230755,
        "meta_eccentricity": 0.0004823,
        "meta_inclination": 54.4999,
        "meta_ra_of_asc_node": 309.2007,
        "meta_arg_of_pericenter": 273.5581,
        "meta_mean_anomaly": 86.3811,
        "meta_ephemeris_type": 0,
        "meta_classification_type": "U",
        "meta_norad_cat_id": 43108,
        "meta_element_set_no": 999,
        "meta_rev_at_epoch": 5367,
        "meta_bstar": 0,
        "meta_mean_motion_dot": -5.7e-07,
        "meta_mean_motion_ddot": 0,
        "tle_line1": "1 43108U 18003B   25335.15987406 -.00000057  00000+0  00000+0 0  9997",
        "tle_line2": "2 43108  54.4999 309.2007 0004823 273.5581  86.3811  1.86230755 53672"
      },
      "geometry": {
        "type": "Point",
        "coordinates": [
          -62.13562493320496,
          -15.306895594118517
        ]
      }
    },
    {
      "type": "Feature",
      "properties": {
        "norad_id": 43207,
        "name": "BEIDOU-3 M4 (C22)",
        "group": "gnss",
        "lat": 36.028669402167246,
        "lon": 98.41259579427924,
        "alt_km": 21513.838901580282,
        "timestamp": "2025-12-02T17:49:12.270573+00:00",
        "meta_object_name": "BEIDOU-3 M4 (C22)",
        "meta_object_id": "2018-018A",
        "meta_epoch": "2025-12-02T03:19:43.852800",
        "meta_mean_motion": 1.86230706,
        "meta_eccentricity": 0.00040749,
        "meta_inclination": 56.4768,
        "meta_ra_of_asc_node": 69.6557,
        "meta_arg_of_pericenter": 15.1369,
        "meta_mean_anomaly": 344.8773,
        "meta_ephemeris_type": 0,
        "meta_classification_type": "U",
        "meta_norad_cat_id": 43207,
        "meta_element_set_no": 999,
        "meta_rev_at_epoch": 5307,
        "meta_bstar": 0,
        "meta_mean_motion_dot": -4.5e-07,
        "meta_mean_motion_ddot": 0,
        "tle_line1": "1 43207U 18018A   25336.13870200 -.00000045  00000+0  00000+0 0  9992",
        "tle_line2": "2 43207  56.4768  69.6557 0004074  15.1369 344.8773  1.86230706 53076"
      },
      "geometry": {
        "type": "Point",
        "coordinates": [
          98.41259579427924,
          36.028669402167246
        ]
      }
    },
    {
      "type": "Feature",
      "properties": {
        "norad_id": 43208,
        "name": "BEIDOU-3 M3 (C21)",
        "group": "gnss",
        "lat": 0.17819482347234827,
        "lon": 69.75679582664836,
        "alt_km": 21515.526469515597,
        "timestamp": "2025-12-02T17:49:12.270584+00:00",
        "meta_object_name": "BEIDOU-3 M3 (C21)",
        "meta_object_id": "2018-018B",
        "meta_epoch": "2025-12-02T04:55:31.813248",
        "meta_mean_motion": 1.86230891,
        "meta_eccentricity": 0.0006234,
        "meta_inclination": 56.4762,
        "meta_ra_of_asc_node": 69.6575,
        "meta_arg_of_pericenter": 317.6404,
        "meta_mean_anomaly": 42.3135,
        "meta_ephemeris_type": 0,
        "meta_classification_type": "U",
        "meta_norad_cat_id": 43208,
        "meta_element_set_no": 999,
        "meta_rev_at_epoch": 5307,
        "meta_bstar": 0,
        "meta_mean_motion_dot": -4.5e-07,
        "meta_mean_motion_ddot": 0,
        "tle_line1": "1 43208U 18018B   25336.20522932 -.00000045  00000+0  00000+0 0  9997",
        "tle_line2": "2 43208  56.4762  69.6575 0006234 317.6404  42.3135  1.86230891 53078"
      },
      "geometry": {
        "type": "Point",
        "coordinates": [
          69.75679582664836,
          0.17819482347234827
        ]
      }
    },
    {
      "type": "Feature",
      "properties": {
        "norad_id": 43245,
        "name": "BEIDOU-3 M9 (C29)",
        "group": "gnss",
        "lat": -28.050277511559802,
        "lon": 149.25034148491017,
        "alt_km": 21529.220728322976,
        "timestamp": "2025-12-02T17:49:12.270600+00:00",
        "meta_object_name": "BEIDOU-3 M9 (C29)",
        "meta_object_id": "2018-029A",
        "meta_epoch": "2025-12-01T08:20:14.784576",
        "meta_mean_motion": 1.86227904,
        "meta_eccentricity": 0.00017985,
        "meta_inclination": 54.3765,
        "meta_ra_of_asc_node": 306.8658,
        "meta_arg_of_pericenter": 272.1738,
        "meta_mean_anomaly": 87.7976,
        "meta_ephemeris_type": 0,
        "meta_classification_type": "U",
        "meta_norad_cat_id": 43245,
        "meta_element_set_no": 999,
        "meta_rev_at_epoch": 5221,
        "meta_bstar": 0,
        "meta_mean_motion_dot": -5.8e-07,
        "meta_mean_motion_ddot": 0,
        "tle_line1": "1 43245U 18029A   25335.34739334 -.00000058  00000+0  00000+0 0  9994",
        "tle_line2": "2 43245  54.3765 306.8658 0001798 272.1738  87.7976  1.86227904 52214"
      },
      "geometry": {
        "type": "Point",
        "coordinates": [
          149.25034148491017,
          -28.050277511559802
        ]
      }
    },
    {
      "type": "Feature",
      "properties": {
        "norad_id": 43246,
        "name": "BEIDOU-3 M10 (C30)",
        "group": "gnss",
        "lat": -52.84414208097225,
        "lon": -162.10251876926307,
        "alt_km": 21535.85970519037,
        "timestamp": "2025-12-02T17:49:12.270611+00:00",
        "meta_object_name": "BEIDOU-3 M10 (C30)",
        "meta_object_id": "2018-029B",
        "meta_epoch": "2025-11-29T03:14:13.986240",
        "meta_mean_motion": 1.86228967,
        "meta_eccentricity": 0.00039142,
        "meta_inclination": 54.3758,
        "meta_ra_of_asc_node": 306.9698,
        "meta_arg_of_pericenter": 358.6776,
        "meta_mean_anomaly": 1.3207,
        "meta_ephemeris_type": 0,
        "meta_classification_type": "U",
        "meta_norad_cat_id": 43246,
        "meta_element_set_no": 999,
        "meta_rev_at_epoch": 5215,
        "meta_bstar": 0,
        "meta_mean_motion_dot": -4.6e-07,
        "meta_mean_motion_ddot": 0,
        "tle_line1": "1 43246U 18029B   25333.13488410 -.00000046  00000+0  00000+0 0  9993",
        "tle_line2": "2 43246  54.3758 306.9698 0003914 358.6776   1.3207  1.86228967 52158"
      },
      "geometry": {
        "type": "Point",
        "coordinates": [
          -162.10251876926307,
          -52.84414208097225
        ]
      }
    }
  ]
}